[{"OBJECT_NAME":"ICEYE-X7","OBJECT_ID":"2020-068L","EPOCH":"2026-03-09T22:52:28.702272","MEAN_MOTION":15.29152508,"ECCENTRICITY":0.00068409,"INCLINATION":97.7412,"RA_OF_ASC_NODE":31.2076,"ARG_OF_PERICENTER":332.3045,"MEAN_ANOMALY":27.7829,"EPHEMERIS_TYPE":0,"CLASSIFICATION_TYPE":"U","NORAD_CAT_ID":46496,"ELEMENT_SET_NO":999,"REV_AT_EPOCH":29961,"BSTAR":0.0005654802,"MEAN_MOTION_DOT":0.00015947,"MEAN_MOTION_DDOT":0},{"OBJECT_NAME":"STARLINK-34536","OBJECT_ID":"2025-144AA","EPOCH":"2026-03-09T13:52:06.322080","MEAN_MOTION":15.30210866,"ECCENTRICITY":0.0001322,"INCLINATION":53.1591,"RA_OF_ASC_NODE":181.6305,"ARG_OF_PERICENTER":122.7138,"MEAN_ANOMALY":237.399,"EPHEMERIS_TYPE":0,"CLASSIFICATION_TYPE":"U","NORAD_CAT_ID":64748,"ELEMENT_SET_NO":999,"REV_AT_EPOCH":3969,"BSTAR":0.00089985,"MEAN_MOTION_DOT":0.00026395,"MEAN_MOTION_DDOT":0}]
